[{"OBJECT_NAME":"STARLINK-3589","OBJECT_ID":"2022-025AT","EPOCH":"2026-03-09T06:35:55.537440","MEAN_MOTION":15.0882906,"ECCENTRICITY":0.0001474,"INCLINATION":53.218,"RA_OF_ASC_NODE":20.981,"ARG_OF_PERICENTER":116.3726,"MEAN_ANOMALY":243.7418,"EPHEMERIS_TYPE":0,"CLASSIFICATION_TYPE":"U","NORAD_CAT_ID":51997,"ELEMENT_SET_NO":999,"REV_AT_EPOCH":22084,"BSTAR":-5.5924397e-5,"MEAN_MOTION_DOT":-1.178e-5,"MEAN_MOTION_DDOT":0},{"OBJECT_NAME":"CZ-4C R\/B","OBJECT_ID":"2021-026B","EPOCH":"2026-03-09T16:37:41.696544","MEAN_MOTION":15.16445633,"ECCENTRICITY":0.00393855,"INCLINATION":97.7468,"RA_OF_ASC_NODE":117.371,"ARG_OF_PERICENTER":22.5612,"MEAN_ANOMALY":337.7341,"EPHEMERIS_TYPE":0,"CLASSIFICATION_TYPE":"U","NORAD_CAT_ID":48080,"ELEMENT_SET_NO":999,"REV_AT_EPOCH":27175,"BSTAR":0.00026802982,"MEAN_MOTION_DOT":5.244e-5,"MEAN_MOTION_DDOT":0}]
